{
    "links": {
        "self": "http://www.neowsapp.com/rest/v1/neo/54054576?api_key=iIulBulltgU6a56xZRHN4H3l9WmuAYTsLGpBGhQ2"
    },
    "id": "54054576",
    "neo_reference_id": "54054576",
    "name": "(2020 SK3)",
    "designation": "2020 SK3",
    "nasa_jpl_url": "http://ssd.jpl.nasa.gov/sbdb.cgi?sstr=54054576",
    "absolute_magnitude_h": 25.093,
    "estimated_diameter": {
        "kilometers": {
            "estimated_diameter_min": 0.0254656624,
            "estimated_diameter_max": 0.0569429521
        },
        "meters": {
            "estimated_diameter_min": 25.4656623588,
            "estimated_diameter_max": 56.9429521264
        },
        "miles": {
            "estimated_diameter_min": 0.0158236241,
            "estimated_diameter_max": 0.0353826991
        },
        "feet": {
            "estimated_diameter_min": 83.5487636934,
            "estimated_diameter_max": 186.8207150544
        }
    },
    "is_potentially_hazardous_asteroid": false,
    "close_approach_data": [
        {
            "close_approach_date": "1909-11-26",
            "close_approach_date_full": "1909-Nov-26 23:50",
            "epoch_date_close_approach": -1896480600000,
            "relative_velocity": {
                "kilometers_per_second": "4.0456430353",
                "kilometers_per_hour": "14564.3149272552",
                "miles_per_hour": "9049.6989057715"
            },
            "miss_distance": {
                "astronomical": "1.4238601792",
                "lunar": "553.8816097088",
                "kilometers": "213006449.986138304",
                "miles": "132356070.5888404352"
            },
            "orbiting_body": "Juptr"
        },
        {
            "close_approach_date": "2020-09-22",
            "close_approach_date_full": "2020-Sep-22 02:30",
            "epoch_date_close_approach": 1600741800000,
            "relative_velocity": {
                "kilometers_per_second": "9.1152802075",
                "kilometers_per_hour": "32815.0087470223",
                "miles_per_hour": "20389.9702961706"
            },
            "miss_distance": {
                "astronomical": "0.0328550741",
                "lunar": "12.7806238249",
                "kilometers": "4915049.104052167",
                "miles": "3054069.8941552246"
            },
            "orbiting_body": "Earth"
        },
        {
            "close_approach_date": "2024-11-14",
            "close_approach_date_full": "2024-Nov-14 00:11",
            "epoch_date_close_approach": 1731543060000,
            "relative_velocity": {
                "kilometers_per_second": "21.6914662999",
                "kilometers_per_hour": "78089.2786797577",
                "miles_per_hour": "48521.6409663195"
            },
            "miss_distance": {
                "astronomical": "0.4873018388",
                "lunar": "189.5604152932",
                "kilometers": "72899317.131563356",
                "miles": "45297535.1909360728"
            },
            "orbiting_body": "Earth"
        }
    ],
    "orbital_data": {
        "orbit_id": "7",
        "orbit_determination_date": "2020-10-26 06:51:48",
        "first_observation_date": "2020-09-17",
        "last_observation_date": "2020-09-27",
        "data_arc_in_days": 10,
        "observations_used": 31,
        "orbit_uncertainty": "7",
        "minimum_orbit_intersection": ".029851",
        "jupiter_tisserand_invariant": "3.150",
        "epoch_osculation": "2459000.5",
        "eccentricity": ".5953467010883816",
        "semi_major_axis": "2.550281192317063",
        "inclination": "9.343810622056084",
        "ascending_node_longitude": "354.6486371994474",
        "orbital_period": "1487.580678985312",
        "perihelion_distance": "1.031979697623355",
        "perihelion_argument": "6.572892639255224",
        "aphelion_distance": "4.068582687010771",
        "perihelion_time": "2459116.728499936063",
        "mean_anomaly": "331.8722751860937",
        "mean_motion": ".2420036809334995",
        "equinox": "J2000",
        "orbit_class": {
            "orbit_class_type": "AMO",
            "orbit_class_description": "Near-Earth asteroid orbits similar to that of 1221 Amor",
            "orbit_class_range": "1.017 AU < q (perihelion) < 1.3 AU"
        }
    },
    "is_sentry_object": false
}